0 SL-8 R/B
1 05847U 72009B   13283.09894109  .00000042  00000-0  63219-4 0  3758
2 05847 074.0493 145.4645 0030176 022.0413 141.7321 13.79153281 94373
0 SL-8 R/B
1 05847U 72009B   13284.11589841  .00000039  00000-0  60351-4 0  3767
2 05847 074.0491 143.7668 0030211 020.0898 150.9021 13.79153175 94519
0 SL-8 R/B
1 05847U 72009B   13286.14207557  .00000012  00000-0  33254-4 0  3788
2 05847 074.0487 140.3844 0030264 016.2085 130.8171 13.79153161 94794
0 SL-8 R/B
1 05847U 72009B   13287.15578017 -.00000035  00000-0 -12259-4 0  3792
2 05847 074.0482 138.6910 0030386 014.3001 123.7981 13.79153395 94930
0 SL-8 R/B
1 05847U 72009B   13288.81257749 -.00000050  00000-0 -26758-4 0  3800
2 05847 074.0481 135.9252 0030432 011.1421 069.7371 13.79153362 95163
0 SL-8 R/B
1 05847U 72009B   13289.82930785 -.00000069  00000-0 -45448-4 0  3818
2 05847 074.0481 134.2279 0030458 009.2374 077.7330 13.79153137 95307
0 SL-8 R/B
1 05847U 72009B   13291.14542120 -.00000052  00000-0 -28708-4 0  3821
2 05847 074.0480 132.0306 0030488 006.8220 132.0960 13.79153065 95482
0 SL-8 R/B
1 05847U 72009B   13292.16098939 -.00000048  00000-0 -24305-4 0  3833
2 05847 074.0480 130.3352 0030531 004.8949 134.3468 13.79152951 95626
0 SL-8 R/B
1 05847U 72009B   13293.81947534 -.00000041  00000-0 -18225-4 0  3848
2 05847 074.0482 127.5663 0030593 001.7634 088.6400 13.79152672 95858
0 SL-8 R/B
1 05847U 72009B   13295.13506160 -.00000049  00000-0 -26101-4 0  3852
2 05847 074.0483 125.3699 0030643 359.2844 140.4476 13.79152510 96036
0 SL-8 R/B
1 05847U 72009B   13296.15042190 -.00000047  00000-0 -23493-4 0  3863
2 05847 074.0484 123.6747 0030680 357.3750 141.6466 13.79152465 96174
